[{"OBJECT_NAME":"COSMOS 2576","OBJECT_ID":"2024-092A","EPOCH":"2026-03-09T19:49:29.705664","MEAN_MOTION":15.27760963,"ECCENTRICITY":0.0005946,"INCLINATION":97.4253,"RA_OF_ASC_NODE":186.0053,"ARG_OF_PERICENTER":159.7731,"MEAN_ANOMALY":200.3745,"EPHEMERIS_TYPE":0,"CLASSIFICATION_TYPE":"U","NORAD_CAT_ID":59773,"ELEMENT_SET_NO":999,"REV_AT_EPOCH":10127,"BSTAR":0.00056283,"MEAN_MOTION_DOT":0.00015211,"MEAN_MOTION_DDOT":0},{"OBJECT_NAME":"STARLINK-33699","OBJECT_ID":"2025-057X","EPOCH":"2026-03-09T22:16:54.969600","MEAN_MOTION":15.27595076,"ECCENTRICITY":0.00011547,"INCLINATION":43.0037,"RA_OF_ASC_NODE":21.7339,"ARG_OF_PERICENTER":258.8037,"MEAN_ANOMALY":101.2685,"EPHEMERIS_TYPE":0,"CLASSIFICATION_TYPE":"U","NORAD_CAT_ID":63328,"ELEMENT_SET_NO":999,"REV_AT_EPOCH":5586,"BSTAR":0.001330796,"MEAN_MOTION_DOT":0.00036557,"MEAN_MOTION_DDOT":0}]
